CCSDS_OMM_VERS = 2.0
CREATION_DATE  = 
ORIGINATOR     = 

OBJECT_NAME    = ATLAS CENTAUR R/B
OBJECT_ID      = 1972-065B
CENTER_NAME    = EARTH
REF_FRAME      = TEME
TIME_SYSTEM    = UTC
MEAN_ELEMENT_THEORY = SGP/SGP4

EPOCH          = 2026-03-20T12:05:50.585280
MEAN_MOTION    = 14.77716471
ECCENTRICITY   = .00328687
INCLINATION    = 35.0005
RA_OF_ASC_NODE = 242.3754
ARG_OF_PERICENTER = 101.2203
MEAN_ANOMALY   = 259.2194

EPHEMERIS_TYPE = 0
CLASSIFICATION_TYPE = U
NORAD_CAT_ID   = 6155
ELEMENT_SET_NO = 999
REV_AT_EPOCH   = 84286
BSTAR          = .17194506E-3
MEAN_MOTION_DOT = .1239E-4
MEAN_MOTION_DDOT = 0

CCSDS_OMM_VERS = 2.0
CREATION_DATE  = 
ORIGINATOR     = 

OBJECT_NAME    = SL-8 R/B
OBJECT_ID      = 1975-112B
CENTER_NAME    = EARTH
REF_FRAME      = TEME
TIME_SYSTEM    = UTC
MEAN_ELEMENT_THEORY = SGP/SGP4

EPOCH          = 2026-03-20T21:51:31.319424
MEAN_MOTION    = 14.38209918
ECCENTRICITY   = .00144534
INCLINATION    = 74.0637
RA_OF_ASC_NODE = 358.2721
ARG_OF_PERICENTER = 86.8112
MEAN_ANOMALY   = 273.4696

EPHEMERIS_TYPE = 0
CLASSIFICATION_TYPE = U
NORAD_CAT_ID   = 8459
ELEMENT_SET_NO = 999
REV_AT_EPOCH   = 63348
BSTAR          = .75723798E-4
MEAN_MOTION_DOT = .204E-5
MEAN_MOTION_DDOT = 0

CCSDS_OMM_VERS = 2.0
CREATION_DATE  = 
ORIGINATOR     = 

OBJECT_NAME    = SL-3 R/B
OBJECT_ID      = 1977-057B
CENTER_NAME    = EARTH
REF_FRAME      = TEME
TIME_SYSTEM    = UTC
MEAN_ELEMENT_THEORY = SGP/SGP4

EPOCH          = 2026-03-20T22:03:14.779584
MEAN_MOTION    = 15.45795207
ECCENTRICITY   = .00063357
INCLINATION    = 97.5785
RA_OF_ASC_NODE = 252.3377
ARG_OF_PERICENTER = 237.2200
MEAN_ANOMALY   = 122.8439

EPHEMERIS_TYPE = 0
CLASSIFICATION_TYPE = U
NORAD_CAT_ID   = 10114
ELEMENT_SET_NO = 999
REV_AT_EPOCH   = 67006
BSTAR          = .26307163E-3
MEAN_MOTION_DOT = .12662E-3
MEAN_MOTION_DDOT = 0

CCSDS_OMM_VERS = 2.0
CREATION_DATE  = 
ORIGINATOR     = 

OBJECT_NAME    = SEASAT 1
OBJECT_ID      = 1978-064A
CENTER_NAME    = EARTH
REF_FRAME      = TEME
TIME_SYSTEM    = UTC
MEAN_ELEMENT_THEORY = SGP/SGP4

EPOCH          = 2026-03-20T21:49:40.387872
MEAN_MOTION    = 14.46168853
ECCENTRICITY   = .00025063
INCLINATION    = 108.0087
RA_OF_ASC_NODE = 149.0423
ARG_OF_PERICENTER = 280.7305
MEAN_ANOMALY   = 79.3558

EPHEMERIS_TYPE = 0
CLASSIFICATION_TYPE = U
NORAD_CAT_ID   = 10967
ELEMENT_SET_NO = 999
REV_AT_EPOCH   = 50813
BSTAR          = .91146277E-4
MEAN_MOTION_DOT = .189E-5
MEAN_MOTION_DDOT = 0

CCSDS_OMM_VERS = 2.0
CREATION_DATE  = 
ORIGINATOR     = 

OBJECT_NAME    = SL-14 R/B
OBJECT_ID      = 1979-011B
CENTER_NAME    = EARTH
REF_FRAME      = TEME
TIME_SYSTEM    = UTC
MEAN_ELEMENT_THEORY = SGP/SGP4

EPOCH          = 2026-03-20T09:05:18.682080
MEAN_MOTION    = 14.91920753
ECCENTRICITY   = .00167167
INCLINATION    = 82.5204
RA_OF_ASC_NODE = 86.4247
ARG_OF_PERICENTER = 27.1182
MEAN_ANOMALY   = 333.0907

EPHEMERIS_TYPE = 0
CLASSIFICATION_TYPE = U
NORAD_CAT_ID   = 11267
ELEMENT_SET_NO = 999
REV_AT_EPOCH   = 53037
BSTAR          = .51713979E-4
MEAN_MOTION_DOT = .55E-5
MEAN_MOTION_DDOT = 0

CCSDS_OMM_VERS = 2.0
CREATION_DATE  = 
ORIGINATOR     = 

OBJECT_NAME    = SL-8 R/B
OBJECT_ID      = 1979-089B
CENTER_NAME    = EARTH
REF_FRAME      = TEME
TIME_SYSTEM    = UTC
MEAN_ELEMENT_THEORY = SGP/SGP4

EPOCH          = 2026-03-20T21:53:46.532832
MEAN_MOTION    = 14.42356856
ECCENTRICITY   = .00169753
INCLINATION    = 74.0674
RA_OF_ASC_NODE = 70.2668
ARG_OF_PERICENTER = 241.6819
MEAN_ANOMALY   = 118.2625

EPHEMERIS_TYPE = 0
CLASSIFICATION_TYPE = U
NORAD_CAT_ID   = 11574
ELEMENT_SET_NO = 999
REV_AT_EPOCH   = 43772
BSTAR          = .50760349E-4
MEAN_MOTION_DOT = .141E-5
MEAN_MOTION_DDOT = 0

CCSDS_OMM_VERS = 2.0
CREATION_DATE  = 
ORIGINATOR     = 

OBJECT_NAME    = SL-14 R/B
OBJECT_ID      = 1980-005B
CENTER_NAME    = EARTH
REF_FRAME      = TEME
TIME_SYSTEM    = UTC
MEAN_ELEMENT_THEORY = SGP/SGP4

EPOCH          = 2026-03-20T07:57:33.505056
MEAN_MOTION    = 14.90941572
ECCENTRICITY   = .00169606
INCLINATION    = 82.5124
RA_OF_ASC_NODE = 297.1403
ARG_OF_PERICENTER = 124.7812
MEAN_ANOMALY   = 235.5007

EPHEMERIS_TYPE = 0
CLASSIFICATION_TYPE = U
NORAD_CAT_ID   = 11672
ELEMENT_SET_NO = 999
REV_AT_EPOCH   = 47807
BSTAR          = .4385498E-4
MEAN_MOTION_DOT = .459E-5
MEAN_MOTION_DDOT = 0

CCSDS_OMM_VERS = 2.0
CREATION_DATE  = 
ORIGINATOR     = 

OBJECT_NAME    = SL-8 R/B
OBJECT_ID      = 1981-003B
CENTER_NAME    = EARTH
REF_FRAME      = TEME
TIME_SYSTEM    = UTC
MEAN_ELEMENT_THEORY = SGP/SGP4

EPOCH          = 2026-03-20T19:03:24.276672
MEAN_MOTION    = 15.11419752
ECCENTRICITY   = .02614114
INCLINATION    = 82.9353
RA_OF_ASC_NODE = 279.7531
ARG_OF_PERICENTER = 139.9332
MEAN_ANOMALY   = 222.1513

EPHEMERIS_TYPE = 0
CLASSIFICATION_TYPE = U
NORAD_CAT_ID   = 12139
ELEMENT_SET_NO = 999
REV_AT_EPOCH   = 31635
BSTAR          = .54383295E-3
MEAN_MOTION_DOT = .2147E-3
MEAN_MOTION_DDOT = 0

CCSDS_OMM_VERS = 2.0
CREATION_DATE  = 
ORIGINATOR     = 

OBJECT_NAME    = SL-3 R/B
OBJECT_ID      = 1981-046B
CENTER_NAME    = EARTH
REF_FRAME      = TEME
TIME_SYSTEM    = UTC
MEAN_ELEMENT_THEORY = SGP/SGP4

EPOCH          = 2026-03-20T22:40:28.892640
MEAN_MOTION    = 15.42252532
ECCENTRICITY   = .00186924
INCLINATION    = 81.2279
RA_OF_ASC_NODE = 276.2243
ARG_OF_PERICENTER = 342.9336
MEAN_ANOMALY   = 17.1276

EPHEMERIS_TYPE = 0
CLASSIFICATION_TYPE = U
NORAD_CAT_ID   = 12465
ELEMENT_SET_NO = 999
REV_AT_EPOCH   = 44016
BSTAR          = .24994952E-3
MEAN_MOTION_DOT = .10842E-3
MEAN_MOTION_DDOT = 0

CCSDS_OMM_VERS = 2.0
CREATION_DATE  = 
ORIGINATOR     = 

OBJECT_NAME    = SL-3 R/B
OBJECT_ID      = 1981-103B
CENTER_NAME    = EARTH
REF_FRAME      = TEME
TIME_SYSTEM    = UTC
MEAN_ELEMENT_THEORY = SGP/SGP4

EPOCH          = 2026-03-20T21:17:15.413280
MEAN_MOTION    = 15.21501262
ECCENTRICITY   = .00124274
INCLINATION    = 81.1606
RA_OF_ASC_NODE = 200.2969
ARG_OF_PERICENTER = 246.1352
MEAN_ANOMALY   = 113.8578

EPHEMERIS_TYPE = 0
CLASSIFICATION_TYPE = U
NORAD_CAT_ID   = 12904
ELEMENT_SET_NO = 999
REV_AT_EPOCH   = 97493
BSTAR          = .23641029E-3
MEAN_MOTION_DOT = .5353E-4
MEAN_MOTION_DDOT = 0

CCSDS_OMM_VERS = 2.0
CREATION_DATE  = 
ORIGINATOR     = 

OBJECT_NAME    = SL-3 R/B
OBJECT_ID      = 1982-013B
CENTER_NAME    = EARTH
REF_FRAME      = TEME
TIME_SYSTEM    = UTC
MEAN_ELEMENT_THEORY = SGP/SGP4

EPOCH          = 2026-03-20T21:22:17.704416
MEAN_MOTION    = 15.22114112
ECCENTRICITY   = .00232312
INCLINATION    = 81.1748
RA_OF_ASC_NODE = 147.6433
ARG_OF_PERICENTER = 140.3454
MEAN_ANOMALY   = 219.9482

EPHEMERIS_TYPE = 0
CLASSIFICATION_TYPE = U
NORAD_CAT_ID   = 13068
ELEMENT_SET_NO = 999
REV_AT_EPOCH   = 40605
BSTAR          = .14472991E-3
MEAN_MOTION_DOT = .3365E-4
MEAN_MOTION_DDOT = 0

CCSDS_OMM_VERS = 2.0
CREATION_DATE  = 
ORIGINATOR     = 

OBJECT_NAME    = SL-3 R/B
OBJECT_ID      = 1982-039B
CENTER_NAME    = EARTH
REF_FRAME      = TEME
TIME_SYSTEM    = UTC
MEAN_ELEMENT_THEORY = SGP/SGP4

EPOCH          = 2026-03-20T22:06:21.383712
MEAN_MOTION    = 15.10139773
ECCENTRICITY   = .00291502
INCLINATION    = 81.1579
RA_OF_ASC_NODE = 203.0122
ARG_OF_PERICENTER = 287.5846
MEAN_ANOMALY   = 72.2195

EPHEMERIS_TYPE = 0
CLASSIFICATION_TYPE = U
NORAD_CAT_ID   = 13154
ELEMENT_SET_NO = 999
REV_AT_EPOCH   = 38333
BSTAR          = .1441098E-3
MEAN_MOTION_DOT = .2396E-4
MEAN_MOTION_DDOT = 0

